ORBCOMM-X [-]           
1 21576U 91050C   23348.79439113  .00000319  00000+0  10988-3 0  9994
2 21576  98.4154  53.8233 0004583  59.8832 300.2811 14.42290266702979
ORBCOMM FM01 [-]        
1 23545U 95017A   23348.42310018  .00003553  00000+0  50662-3 0  9997
2 23545  69.9683 353.0622 0002357  28.9298 331.1981 14.77613950530836
ORBCOMM FM02 [-]        
1 23546U 95017B   23348.47988344  .00004777  00000+0  68373-3 0  9993
2 23546  69.9705  12.0886 0004642  36.2865 323.8597 14.77212209530492
ORBCOMM FM08 [-]        
1 25112U 97084A   23348.48991740  .00001274  00000+0  43069-3 0  9999
2 25112  45.0143 122.3748 0006186 342.7393  17.3245 14.41682858361963
ORBCOMM FM10 [-]        
1 25113U 97084B   23348.48911466  .00001411  00000+0  47294-3 0  9994
2 25113  45.0155 124.1333 0004551 305.1158  54.9265 14.41619713361951
ORBCOMM FM11 [+]        
1 25114U 97084C   23348.49595838  .00001245  00000+0  42334-3 0  9992
2 25114  45.0139 124.0558 0005219 307.4573  52.5802 14.41506293361948
ORBCOMM FM12 [-]        
1 25115U 97084D   23348.52219464  .00001147  00000+0  39371-3 0  9993
2 25115  45.0147 123.5849 0004259 305.0201  55.0249 14.41485510361952
ORBCOMM FM09 [-]        
1 25116U 97084E   23348.46085029  .00001221  00000+0  41649-3 0  9999
2 25116  45.0151 124.5231 0005747 292.0229  68.0010 14.41455450361918
